E-KAGAKU-1              
1 65943U 98067XQ  26071.30203425  .00242002  00000+0  11646-2 0  9991
2 65943  51.6239  43.8096 0005792  91.6608 268.5057 15.81386675 23916
HRC MONOBLOCK CAMERA    
1 66052U 98067XR  26071.19492497  .00056559  00000+0  62436-3 0  9993
2 66052  51.6281  52.8869 0003761 103.4656 256.6757 15.62501193 22784
HTV-X1                  
1 66174U 25241A   26071.30993227  .00009098  00000+0  39666-3 0  9997
2 66174  51.6349  60.3824 0006310 180.1494 179.9483 15.22858163 21357
SZ-21 MODULE            
1 66515U 25246C   26070.66510517  .00042405  00000+0  36183-3 0  9996
2 66515  41.4734 191.1990 0001230 305.0978  54.9749 15.68721611 18382
SHENZHOU-22             
1 66645U 25272A   26071.21114556  .00026987  00000+0  31717-3 0  9999
2 66645  41.4662 192.8178 0006768 286.7169  73.2927 15.60804947267520
SOYUZ-MS 28             
1 66664U 25275A   26071.15917150  .00009166  00000+0  17667-3 0  9995
2 66664  51.6325  60.1463 0007984 183.4136 176.6799 15.48595269554526
DUPLEX                  
1 66906U 98067XS  26071.21883993  .00037736  00000+0  52838-3 0  9990
2 66906  51.6293  56.7987 0002554 123.1889 236.9348 15.56413150 15524
ISS OBJECT XT           
1 66907U 98067XT  26071.19309498  .00175431  00000+0  13957-2 0  9994
2 66907  51.6250  52.8597 0004703  94.7778 265.3756 15.70120533 15570
ISS OBJECT XU           
1 66908U 98067XU  26071.19109037  .00173902  00000+0  13761-2 0  9996
2 66908  51.6251  52.8423 0004849  95.5022 264.6529 15.70253790 15574
SILVERSAT               
1 66909U 98067XV  26071.18756588  .00230471  00000+0  15879-2 0  9992
2 66909  51.6249  52.0679 0005428  93.6368 266.5252 15.73352402 15581
ISS OBJECT XW           
1 66910U 98067XW  26071.31642978  .00160368  00000+0  13157-2 0  9990
2 66910  51.6247  52.1756 0005348 102.3551 257.8045 15.69426524 15597
ISS OBJECT XX           
1 66911U 98067XX  26071.17938456  .00288232  00000+0  16961-2 0  9991
2 66911  51.6228  51.2413 0006997  99.7488 260.4303 15.76798851 15585
